Z-SAT                   
1 49399U 21102E   24209.46618512  .00005785  00000+0  36882-3 0  9994
2 49399  97.4289 254.7042 0021782 118.1814 242.1618 15.08899780149062
HIBARI                  
1 49400U 21102F   24209.02919923  .00009871  00000+0  56189-3 0  9991
2 49400  97.4267 256.2220 0018980 107.5679 252.7627 15.12879998149143
KOSEN-1                 
1 49402U 21102H   24209.35722840  .00008260  00000+0  48042-3 0  9999
2 49402  97.4208 256.1873 0020198 103.0586 257.2901 15.12139992149211
GLOBAL-14               
1 49469U 21106A   24208.82976358  .00013294  00000+0  34715-3 0  9997
2 49469  42.0126   2.2490 0009849 292.1374  67.8420 15.38565685151752
GLOBAL-15               
1 49470U 21106B   24208.81363851  .00132675  00000+0  97392-3 0  9991
2 49470  41.9970   9.3318 0029696 330.4418  29.4754 15.71330122151660
GAOFEN-3 02             
1 49495U 21109A   24209.50036836  .00000120  00000+0  49763-4 0  9997
2 49495  98.4127 216.2494 0000794 262.4686  97.6414 14.42215638140907
GLOBAL-12               
1 49772U 21115BA  24208.87325178  .00025753  00000+0  65720-3 0  9990
2 49772  53.2039  63.2309 0005183  77.0170 283.1414 15.39351238149439
GLOBAL-13               
1 49773U 21115BB  24208.00338265  .00022745  00000+0  58202-3 0  9992
2 49773  53.2064  68.5707 0004550  89.6924 270.4602 15.39344384149286
TIANJIN UNIVERSITY 1 (*)
1 49812U 21117A   24209.41012366  .00777846  37053-3  60364-3 0  9998
2 49812  97.3129 308.9572 0008457 245.5951 114.4453 16.14884905148658
GLOBAL-17               
1 49949U 21120A   24208.83206726  .00026647  00000+0  70052-3 0  9992
2 49949  42.0028 128.9368 0007208 240.1823 119.8300 15.38012563148433
GLOBAL-16               
1 49950U 21120B   24209.25359081  .00023287  00000+0  60862-3 0  9999
2 49950  42.0031 126.0186 0007316 234.8964 125.1190 15.38249614148494
XW-3 (CAS-9)            
1 50466U 21131B   24209.50460705  .00000953  00000+0  31828-3 0  9994
2 50466  98.5281 294.3876 0004320  22.9589 337.1792 14.39751039135800
UMBRA-02                
1 50986U 22002C   24209.43334994  .00067745  00000+0  20823-2 0  9995
2 50986  97.3868 274.0739 0005958 174.7125 185.4181 15.33425752140423
TEVEL-3                 
1 50988U 22002E   24209.48290119  .00949139  43521-3  19388-2 0  9991
2 50988  97.3590 288.1224 0010925 249.6452 110.3653 15.99392310141413
TEVEL-8                 
1 50989U 22002F   24209.28398601  .00862673  34485-3  18918-2 0  9999
2 50989  97.3656 287.9862 0011367 250.5848 109.4201 15.98087809141379
ION SCV-004             
1 50993U 22002K   24209.25066778  .00006046  00000+0  28810-3 0  9997
2 50993  97.3854 269.2596 0007854 269.3194  90.7141 15.19455402140105
TEVEL-1                 
1 51013U 22002AF  24209.27782902  .00837164  32089-3  18761-2 0  9999
2 51013  97.3641 287.7091 0011081 249.1893 110.8197 15.97695675141376
IRIS-A                  
1 51044U 22002BN  24209.21143170  .00023375  00000+0  72356-3 0  9991
2 51044  97.3814 275.6244 0004983 237.6898 122.3862 15.33461569140557
KEPLER-19               
1 51051U 22002BV  24209.07604103  .00021621  00000+0  74206-3 0  9999
2 51051  97.3867 273.7751 0005312 252.0081 108.0581 15.30152928140391
ETV-A1                  
1 51060U 22002CE  24209.43341510  .00007821  00000+0  34437-3 0  9997
2 51060  97.3877 271.3837 0006327 283.6984  76.3548 15.22094362140242
BRO-5                   
1 51061U 22002CF  24209.47922583  .00019517  00000+0  75559-3 0  9992
2 51061  97.3922 273.2561 0006226 280.4520  79.6017 15.26203137140342
TEVEL-7                 
1 51062U 22002CG  24209.44454040  .00991327  48218-3  19931-2 0  9994
2 51062  97.3619 288.1619 0011009 251.5546 108.4536 15.99684216141403
TEVEL-4                 
1 51063U 22002CH  24209.46387971  .00762520  25592-3  18576-2 0  9990
2 51063  97.3666 287.9783 0010748 247.6676 112.3462 15.96157881141394
TEVEL-2                 
1 51069U 22002CP  24209.29122627  .00910336  39470-3  18881-2 0  9991
2 51069  97.3598 287.8815 0011060 249.6212 110.3878 15.99107440141382
VZLUSAT-2               
1 51085U 22002DF  24209.47647936  .00017234  00000+0  61246-3 0  9996
2 51085  97.3847 273.7636 0008624 264.7192  95.3064 15.29040813140425
L-SAR 01A               
1 51284U 22007A   24209.43318439  .00001323  00000+0  14852-3 0  9994
2 51284  97.8109 215.7369 0001617  90.1671 269.9731 14.88423136135879
INSPIRESAT-1            
1 51657U 22013B   24209.45374924  .00016705  00000+0  62424-3 0  9996
2 51657  97.5271 226.6150 0009233  40.7524 319.4404 15.27393348135704
INS-2TD                 
1 51658U 22013C   24209.23857910  .00064273  00000+0  11294-2 0  9995
2 51658  97.5158 234.0841 0003757  40.8123 319.3409 15.50283128136198
L-SAR 01B               
1 51822U 22018A   24209.39949371  .00001296  00000+0  14561-3 0  9990
2 51822  97.8113 215.6751 0001636  94.1309 266.0094 14.88423147131103
2022-019D               
1 51827U 22019D   24209.45377935  .00013093  00000+0  55548-3 0  9992
2 51827  97.4317 280.9102 0014295  99.1138 261.1717 15.23138461133376
2022-019G               
1 51830U 22019G   24209.46525130  .00144470  00000+0  17471-2 0  9995
2 51830  97.4234 291.7071 0004831  57.2427 302.9295 15.60204439134112
JILIN-1 GAOFEN 03D14    
1 51831U 22019H   24209.46309501  .00014244  00000+0  64129-3 0  9996
2 51831  97.4336 283.4370 0014763  87.6672 272.6254 15.21086652133546
2022-019J               
1 51832U 22019J   24209.45338283  .00003234  00000+0  17658-3 0  9997
2 51832  97.4309 277.5109 0011256 113.7862 246.4551 15.14973799133152
JILIN-1 GAOFEN 03D16    
1 51834U 22019L   24209.45485158  .00014198  00000+0  62107-3 0  9993
2 51834  97.4309 283.4878 0010202  99.7987 260.4401 15.22126225133540
JILIN-1 GAOFEN 03D11    
1 51835U 22019M   24209.45130060  .00014079  00000+0  62329-3 0  9997
2 51835  97.4341 283.5026 0012581  87.6055 272.6621 15.21693781133541
JILIN-1 GAOFEN 03D17    
1 51838U 22019Q   24209.49792564  .00022026  00000+0  77447-3 0  9995
2 51838  97.4318 284.1126 0011536  95.9219 264.3336 15.29310759133594
JILIN-1 GAOFEN 03D15    
1 51839U 22019R   24209.47968205  .00015879  00000+0  69372-3 0  9997
2 51839  97.4316 283.3931 0007501 102.4781 257.7295 15.22165000133559
JILIN-1 GAOFEN 03D10    
1 51840U 22019S   24209.47136190  .00014842  00000+0  64306-3 0  9990
2 51840  97.4321 283.5499 0006799  68.5390 291.6571 15.22468163133554
JILIN-1 GAOFEN 03D12    
1 51841U 22019T   24209.48144095  .00016037  00000+0  71853-3 0  9998
2 51841  97.4303 283.4228 0009455  77.4797 282.7496 15.21285063133558
JILIN-1 GAOFEN 03D18    
1 51844U 22019W   24209.46865970  .00014296  00000+0  64593-3 0  9999
2 51844  97.4303 283.2004 0015523  90.3499 269.9515 15.20953979133441
2022-023F               
1 51951U 22023F   24209.48931702  .00032847  00000+0  14483-2 0  9996
2 51951  63.4976  96.0931 0084741 343.5843  16.2528 15.18411585132997
ORESAT0                 
1 52017U 22026K   24208.92572856  .00117040  00000+0  13637-2 0  9991
2 52017  97.4910 225.2123 0011954  88.5774 271.6852 15.61201561131894
CZ-4C R/B               
1 52085U 22027B   24209.42406583 -.00000021  00000+0  82374-4 0  9993
2 52085  63.3974  94.5187 0171605  26.6807 334.2933 13.65395744117853
MERIDIAN 10             
1 52145U 22030A   24208.06995753  .00000290  00000+0  00000+0 0  9993
2 52145  62.6558 213.9472 6827346 273.7534  16.9705  2.00613029 17162
OMNI-L1                 
1 52157U 22033A   24209.22719047  .00003946  00000+0  53703-3 0  9991
2 52157  97.8936 290.5309 0005671  17.5158 342.6248 14.79294842125331
ENMAP                   
1 52159U 22033C   24209.24072596  .00000938  00000+0  14705-3 0  9993
2 52159  97.9778 290.4010 0001371  89.2895 270.8471 14.74941217124950
ARCSAT-1                
1 52161U 22033E   24209.18951420  .00015312  00000+0  47502-3 0  9994
2 52161  97.3257 288.6294 0007744 167.2343 192.9098 15.33461341129244
ION SCV-005             
1 52163U 22033G   24209.47192638  .00722983  23425-5  67708-3 0  9997
2 52163  97.3251 333.1170 0034632 224.6133 135.2363 16.10709435132132
MP42                    
1 52169U 22033N   24209.23910534  .00070234  00000+0  79671-3 0  9995
2 52169  97.3215 298.1479 0005235 142.0602 218.1026 15.62131780129884
BRO-7                   
1 52174U 22033T   24209.52334522  .00020526  00000+0  47239-3 0  9994
2 52174  97.3247 293.4436 0009988 136.0868 224.1175 15.42610774129595
SUCHAI-2                
1 52192U 22033AM  24209.23646137  .00088172  00000+0  90136-3 0  9995
2 52192  97.3052 297.6142 0004117 153.8510 206.2959 15.64741777129930
GLOBAL-18               
1 52196U 22034B   24209.20660175  .00023454  00000+0  60773-3 0  9991
2 52196  52.9910 281.5066 0004526 345.4012  14.6859 15.38936648130667
GLOBAL-20               
1 52197U 22034C   24209.20237082  .00013576  00000+0  24194-3 0  9990
2 52197  52.9892 267.8091 0012812 335.7979  24.2425 15.50369360130855
GAOFEN-3 03             
1 52200U 22035A   24209.47339046  .00000122  00000+0  50098-4 0  9994
2 52200  98.4119 216.8400 0001761  89.9267 270.2125 14.42215092121441
DAQI 1                  
1 52257U 22039A   24209.50142950  .00000673  00000+0  15705-3 0  9996
2 52257  98.2106 146.6373 0002142 143.3880 216.7466 14.57817604121464
JILIN-1 GAOFEN 4A       
1 52388U 22046A   24209.48693592  .00017679  00000+0  76447-3 0  9993
2 52388  97.5016 296.3963 0014773 331.4419  28.6007 15.22420289123881
JILIN-1 GAOFEN 3D05     
1 52390U 22046C   24209.49549454  .00015357  00000+0  72233-3 0  9994
2 52390  97.4979 298.3113 0001676  82.4427 277.6998 15.19659805124048
JILIN-1 GAOFEN 3D07     
1 52392U 22046E   24209.46967752  .00016617  00000+0  73346-3 0  9994
2 52392  97.5053 299.1604 0003215 109.7898 250.3684 15.21826586124050
BRO-6                   
1 52422U 22047AE  24209.46932742  .00010481  00000+0  43256-3 0  9990
2 52422  97.3949 288.7772 0007031  38.1345 322.0388 15.24198599125247
